#cP2021  8 26  0  0  0.00000000      96 ORBIT IGb14 HLM  IGS
## 2172 345600.00000000   900.00000000 59452 0.0000000000000
+   31   G01G02G03G04G05G06G07G08G09G10G12G13G14G15G16G17G18
+        G19G20G21G22G23G24G25G26G27G28G29G30G31G32  0  0  0
+          0  0  0  0  0  0  0  0  0  0  0  0  0  0  0  0  0
+          0  0  0  0  0  0  0  0  0  0  0  0  0  0  0  0  0
+          0  0  0  0  0  0  0  0  0  0  0  0  0  0  0  0  0
++         1  2  1  3  1  1  1  2  2  2  2  2  1  2  2  2  2
++         2  1  2  2  2  1  2  1  2  2  2  1  1  1  0  0  0
++         0  0  0  0  0  0  0  0  0  0  0  0  0  0  0  0  0
++         0  0  0  0  0  0  0  0  0  0  0  0  0  0  0  0  0
++         0  0  0  0  0  0  0  0  0  0  0  0  0  0  0  0  0
%c G  cc GPS ccc cccc cccc cccc cccc ccccc ccccc ccccc ccccc
%c cc cc ccc ccc cccc cccc cccc cccc ccccc ccccc ccccc ccccc
%f  1.2500000  1.025000000  0.00000000000  0.000000000000000
%f  0.0000000  0.000000000  0.00000000000  0.000000000000000
%i    0    0    0    0      0      0      0      0         0
%i    0    0    0    0      0      0      0      0         0
/* FINAL ORBIT COMBINATION FROM WEIGHTED AVERAGE OF:        
/* cod emr esa gfz grg jpl mit ngs sio                      
/* REFERENCED TO IGS TIME (IGST) AND TO WEIGHTED MEAN POLE: 
/* PCV:IGS14_2163 OL/AL:FES2004  NONE     Y  ORB:CMB CLK:CMB
*  2021  8 26 21  0  0.00000000
PG01 -13767.911414  20534.027692   8963.302205    585.906140  3  3  3  65       
PG02  15005.649311   1023.963682 -21248.049851   -628.726178  6  7     73       
PG03 -20154.624783  12278.711678 -12182.237023   -267.893822  3  4  2 103       
PG04  -8948.036250  12807.354287 -21466.901572   -204.172705  5  5  7 102       
PG05  25982.307753  -5926.273358     11.931060    -52.390250  3  5  2 100       
PG06   9053.385046  14605.178560 -20177.549237     62.937076  4  7  4  83       
PG07  -4979.922725  25320.130210   5418.998512    233.089790  4  1  1  96       
PG08 -16835.623627   2347.210522  20473.585165    -34.129475  5  4  3  92       
PG09   2200.378783  20447.861662 -16860.587218   -359.760059  4  4  6 103       
PG10 -10406.996714 -12695.691711  21053.668295   -190.528955  4  4  1 100       
PG12  21133.886759 -10733.349191 -12096.799433    -88.517193  7  4  3 104       
PG13  18723.043731   6616.309365  17570.011121    176.811711  4  4  4 104       
PG14  10163.458839  13274.093039  20646.858704     14.951568  2  4  3  85       
PG15  16737.747465  -4686.399423  19785.701426   -125.560884  4  5  5  97       
PG16 -26402.874448   -767.397042  -4821.795250   -380.252105  5  1  4  69       
PG17  12094.017291  22902.175963   6296.935959    495.389781  4  7  5  81       
PG18   4155.502122 -25178.801371   7182.854087    328.972878  5  5  2 105       
PG19  16984.915779  20239.436402  -3707.275548     44.799565  4  5  5  93       
PG20  23809.161054    628.585254 -11506.262473    519.450810  4  4  2  85       
PG21 -15834.695914  13694.504431  16715.611528    139.407494  3  4  3  80       
PG22 -23922.135846  10378.572541  -4265.513707   -528.504816  2  3     82       
PG23   2816.430776 -15652.311922  21237.586833     65.590032  4  4  5  89       
PG24  14718.489563 -17369.514235  13083.588261    219.335662  6  4  3  98       
PG25  11183.400405 -15439.619675 -18642.147500    197.874784  5  5  4  86       
PG26 -20946.543170  -6463.199967 -15244.474182    127.192055     5  4  98       
PG27 -20406.067502  -8137.813707  15006.468801   -184.064457  6  5  5  91       
PG28  15909.656377  11234.643193  18518.535015    512.658220  3  4  3  57       
PG29   1194.234785 -19065.365964 -18470.419228   -402.282619  7  4  6  80       
PG30   3852.945710  21403.804504  15155.233818   -466.432760  2  3  3 100       
PG31 -10885.495536 -12569.954803 -20700.254500   -136.423397  4  6  3 102       
PG32 -15748.384412 -21308.278229   3034.687162      4.726015  6  4  4  78       
*  2021  8 26 21 15  0.00000000
PG01 -13574.532937  19316.677717  11547.775766    585.896041  3  3  3  80       
PG02  14428.710050   3537.009437 -21367.525758   -628.728432  6  6  1  68       
PG03 -21408.501376  12349.942093  -9686.723450   -267.905601  3  4  3  81       
PG04 -10580.251677  10947.244873 -21757.422266   -204.172868  6  5  6  99       
PG05  25908.594067  -5646.430455  -2821.312048    -52.391368  3  5  1  90       
PG06   8290.529012  16712.086080 -18824.059183     62.943223  4  6  5 107       
PG07  -5408.159402  25629.331587   2603.252725    233.096660  5  1     91       
PG08 -18338.774632    646.519916  19300.306379    -34.131163  5  4  3  97       
PG09    697.585145  19097.412022 -18502.104961   -359.760873  4  4  6  98       
PG10  -8060.191262 -13264.651276  21700.898725   -190.536061  3  4  3 106       
PG12  22359.297082 -10716.059201  -9586.782134    -88.521946  7  4  4 102       
PG13  19704.952555   8275.149135  15723.360742    176.816248  4  3  4 104       
PG14   7808.126465  13757.371199  21339.235920     14.944007  1  5  3  80       
PG15  18379.032167  -3105.295349  18660.677512   -125.558489  4  5  5  92       
PG16 -25761.215662  -1028.220131  -7558.618504   -380.257857  5  2  3  49       
PG17  11438.715422  22375.340862   9015.763833    495.395196  4  7  5  63       
PG18   4587.199735 -25735.926587   4409.146362    328.969464  6  5  2  99       
PG19  16971.464746  20533.030786   -837.452582     44.804109  3  5  4  79       
PG20  22547.569906   1405.359858 -13784.957119    519.449876  4  3  3  74       
PG21 -15566.420562  11795.169063  18446.902348    139.409611  3  5  3  84       
PG22 -24362.109999  10166.678018  -1474.042301   -528.496386  3  4     77       
PG23   5150.234575 -16160.480188  20397.790768     65.585583  4  4  6  95       
PG24  14601.927301 -15673.139478  15185.966234    219.344711  6  4  3  93       
PG25  13170.066840 -15727.043768 -16984.716619    197.880522  5  5  4  83       
PG26 -19224.700571  -7127.662338 -17086.191602    127.195960  1  5  4  89       
PG27 -21381.713106  -9417.746343  12792.814365   -184.069444  7  5  5  76       
PG28  13838.085174  11604.647548  19958.404650    512.651956  4  5  3  71       
PG29   2624.284077 -17412.123439 -19908.436485   -402.287753  7  4  6  86       
PG30   3089.940134  22852.174763  13037.801438   -466.436442  1  3  3  87       
PG31 -10029.605798 -14712.073699 -19649.397694   -136.425313  4  6  3  99       
PG32 -15235.322685 -21114.902608   5815.044636      4.723379  6  4  4  73       
*  2021  8 26 21 30  0.00000000
PG01 -13376.973933  17813.244391  13927.142526    585.885900  2  2  3  62       
PG02  13981.143180   6067.836169 -21096.234321   -628.730493  7  6  1  76       
PG03 -22376.516348  12407.181235  -7024.232024   -267.917395  4  4  3  95       
PG04 -12314.878431   9166.804737 -21673.354097   -204.173029  6  6  6  94       
PG05  25548.546330  -5266.212308  -5606.586533    -52.392739  3  4  2  92       
PG06   7688.090073  18690.807186 -17144.526055     62.949300  5  6  5  85       
PG07  -5742.528685  25645.218917   -258.477805    233.103757  5  2  1  90       
PG08 -19818.608249   -866.405716  17797.554103    -34.132800  6  3  4  84       
PG09   -994.021475  17711.485940 -19826.639767   -359.761720  5  3  6 108       
PG10  -5695.161499 -13974.900644  21979.739397   -190.543022  3  4  4 100       
PG12  23298.591983 -10702.981084  -6912.223686    -88.526829  7  4  4  98       
PG13  20633.801402   9701.002456  13605.275147    176.821290  5  3  5 105       
PG14   5424.230784  14374.382151  21664.552053     14.936397  1  5  3  78       
PG15  19972.636351  -1695.489690  17207.739316   -125.556059  4  5  5  80       
PG16 -24841.649810  -1378.966213 -10169.752633   -380.263386  5  2  3  86       
PG17  10557.275101  21666.128186  11581.842368    495.400571  3  7  5  55       
PG18   4904.704192 -26007.034713   1559.125191    328.966103  7  5  3 106       
PG19  16763.919387  20579.275143   2046.609091     44.808387  2  6  4  84       
PG20  21102.843862   2341.583408 -15823.863215    519.449466  4  3  3  86       
PG21 -15367.190732   9719.386849  19871.442950    139.411302  3  5  3  74       
PG22 -24515.390547   9859.895323   1343.165259   -528.488034  3  4     64       
PG23   7344.579938 -16756.363675  19205.747149     65.581120  3  4  6  69       
PG24  14525.571826 -13752.046290  17017.902319    219.353768  5  4  2  99       
PG25  14947.453241 -16060.734269 -15037.377166    197.886279  5  5  4 103       
PG26 -17356.031020  -7937.729805 -18638.114518    127.199849  2  5  5  98       
PG27 -22236.514915 -10457.037336  10360.864729   -184.074389  7  5  6  82       
PG28  11654.597672  12112.139360  21068.276994    512.645501  4  5  4  54       
PG29   4239.421055 -15734.561828 -21004.588792   -402.292748  7  4  5  80       
PG30   2463.341268  24093.313629  10694.234390   -466.440080  2  2  4  87       
PG31  -9318.997993 -16765.698482 -18258.776470   -136.426959  4  6  4 100       
PG32 -14491.126579 -20735.967667   8496.651217      4.720722  6  4  4  83       
EOF
